FLOCK 4G-23             
1 62647U 25009AQ  26198.18401416  .00023625  00000+0  69976-3 0  9999
2 62647  97.3924 279.8781 0003347 168.5723 191.5597 15.34864234 83527
FLOCK 4G-34             
1 62650U 25009AT  26197.76144379  .00005893  00000+0  20686-3 0  9990
2 62650  97.3960 279.2037 0002493 159.5107 200.6233 15.29793500 83436
FLOCK 4G-21             
1 62651U 25009AU  26197.80793402  .00020900  00000+0  65821-3 0  9999
2 62651  97.3989 280.2611 0003447 185.5442 174.5763 15.32939732 83495
FLOCK 4G-31             
1 62652U 25009AV  26198.18405693  .00005624  00000+0  19870-3 0  9993
2 62652  97.3965 279.5957 0002125 154.7201 205.4144 15.29603522 83495
FLOCK 4G-4              
1 62659U 25009BC  26197.76132253  .00021184  00000+0  68224-3 0  9998
2 62659  97.3941 278.9925 0004910 185.9162 174.2023 15.32214493141033
FLOCK 4G-6              
1 62660U 25009BD  26198.17271473  .00005018  00000+0  17544-3 0  9991
2 62660  97.3937 279.4372 0003081 192.4969 167.6195 15.29997514141087
FLOCK 4G-2              
1 62661U 25009BE  26198.16585867  .00005835  00000+0  20136-3 0  9994
2 62661  97.4005 280.0746 0003945 193.8646 166.2487 15.30351615141115
FLOCK 4G-5              
1 62663U 25009BG  26198.02930647  .00005206  00000+0  17681-3 0  9994
2 62663  97.4022 280.3409 0003677 175.6350 184.4924 15.30924924 83502
FLOCK 4G-1              
1 62666U 25009BK  26198.02014374  .00005857  00000+0  20299-3 0  9998
2 62666  97.4018 279.9086 0004205 192.2431 167.8708 15.30209452 83471
FLOCK 4G-14             
1 62667U 25009BL  26198.18261305  .00005880  00000+0  20660-3 0  9992
2 62667  97.4022 279.8658 0004424 186.5745 173.5438 15.29759332 83488
FLOCK 4G-10             
1 62670U 25009BP  26197.80094755  .00005801  00000+0  20325-3 0  9998
2 62670  97.3921 278.7815 0003835 206.7700 153.3343 15.29856936141061
FLOCK 4G-36             
1 62675U 25009BU  26198.18795425  .00005963  00000+0  20900-3 0  9995
2 62675  97.4010 279.7926 0004553 192.3801 167.7329 15.29836056 83485
FLOCK 4G-15             
1 62678U 25009BX  26198.19476992  .00005891  00000+0  20592-3 0  9991
2 62678  97.4012 279.9425 0004786 189.4834 170.6317 15.29926287141130
FLOCK 4G-30             
1 62679U 25009BY  26198.19804441  .00022153  00000+0  67352-3 0  9991
2 62679  97.3913 279.4780 0004557 190.8220 169.2926 15.34045113141147
FLOCK 4G-18             
1 62680U 25009BZ  26197.75758890  .00022042  00000+0  70819-3 0  9999
2 62680  97.4007 279.4300 0006353 205.0116 155.0819 15.32274299141063
FLOCK 4G-17             
1 62681U 25009CA  26198.02472845  .00006018  00000+0  20916-3 0  9992
2 62681  97.3917 279.2422 0004286 205.9801 154.1225 15.30105485141114
