{"fetched_at":"2026-07-17T17:37:55.179Z","source":"https://celestrak.org/NORAD/elements/gp.php?GROUP=planet&FORMAT=JSON","constellation":"superdove","records":[{"OBJECT_NAME":"FLOCK 4G-23","OBJECT_ID":"2025-009AQ","EPOCH":"2026-07-17T04:24:58.823424","CLASSIFICATION_TYPE":"U","MEAN_MOTION":15.34864234,"ECCENTRICITY":0.0003347,"INCLINATION":97.3924,"RA_OF_ASC_NODE":279.8781,"ARG_OF_PERICENTER":168.5723,"MEAN_ANOMALY":191.5597,"EPHEMERIS_TYPE":0,"NORAD_CAT_ID":62647,"ELEMENT_SET_NO":999,"REV_AT_EPOCH":8352,"BSTAR":0.00069975715,"MEAN_MOTION_DOT":0.00023625,"MEAN_MOTION_DDOT":0},{"OBJECT_NAME":"FLOCK 4G-34","OBJECT_ID":"2025-009AT","EPOCH":"2026-07-16T18:16:28.743456","CLASSIFICATION_TYPE":"U","MEAN_MOTION":15.297935,"ECCENTRICITY":0.00024938,"INCLINATION":97.396,"RA_OF_ASC_NODE":279.2037,"ARG_OF_PERICENTER":159.5107,"MEAN_ANOMALY":200.6233,"EPHEMERIS_TYPE":0,"NORAD_CAT_ID":62650,"ELEMENT_SET_NO":999,"REV_AT_EPOCH":8343,"BSTAR":0.00020686315,"MEAN_MOTION_DOT":0.00005893,"MEAN_MOTION_DDOT":0},{"OBJECT_NAME":"FLOCK 4G-21","OBJECT_ID":"2025-009AU","EPOCH":"2026-07-16T19:23:25.499328","CLASSIFICATION_TYPE":"U","MEAN_MOTION":15.32939732,"ECCENTRICITY":0.00034475,"INCLINATION":97.3989,"RA_OF_ASC_NODE":280.2611,"ARG_OF_PERICENTER":185.5442,"MEAN_ANOMALY":174.5763,"EPHEMERIS_TYPE":0,"NORAD_CAT_ID":62651,"ELEMENT_SET_NO":999,"REV_AT_EPOCH":8349,"BSTAR":0.00065821345,"MEAN_MOTION_DOT":0.000209,"MEAN_MOTION_DDOT":0},{"OBJECT_NAME":"FLOCK 4G-31","OBJECT_ID":"2025-009AV","EPOCH":"2026-07-17T04:25:02.518752","CLASSIFICATION_TYPE":"U","MEAN_MOTION":15.29603522,"ECCENTRICITY":0.00021256,"INCLINATION":97.3965,"RA_OF_ASC_NODE":279.5957,"ARG_OF_PERICENTER":154.7201,"MEAN_ANOMALY":205.4144,"EPHEMERIS_TYPE":0,"NORAD_CAT_ID":62652,"ELEMENT_SET_NO":999,"REV_AT_EPOCH":8349,"BSTAR":0.00019870143,"MEAN_MOTION_DOT":0.00005624,"MEAN_MOTION_DDOT":0},{"OBJECT_NAME":"FLOCK 4G-4","OBJECT_ID":"2025-009BC","EPOCH":"2026-07-16T18:16:18.266592","CLASSIFICATION_TYPE":"U","MEAN_MOTION":15.32214493,"ECCENTRICITY":0.00049103,"INCLINATION":97.3941,"RA_OF_ASC_NODE":278.9925,"ARG_OF_PERICENTER":185.9162,"MEAN_ANOMALY":174.2023,"EPHEMERIS_TYPE":0,"NORAD_CAT_ID":62659,"ELEMENT_SET_NO":999,"REV_AT_EPOCH":14103,"BSTAR":0.00068224284,"MEAN_MOTION_DOT":0.00021184,"MEAN_MOTION_DDOT":0},{"OBJECT_NAME":"FLOCK 4G-6","OBJECT_ID":"2025-009BD","EPOCH":"2026-07-17T04:08:42.552672","CLASSIFICATION_TYPE":"U","MEAN_MOTION":15.29997514,"ECCENTRICITY":0.00030816,"INCLINATION":97.3937,"RA_OF_ASC_NODE":279.4372,"ARG_OF_PERICENTER":192.4969,"MEAN_ANOMALY":167.6195,"EPHEMERIS_TYPE":0,"NORAD_CAT_ID":62660,"ELEMENT_SET_NO":999,"REV_AT_EPOCH":14108,"BSTAR":0.000175438,"MEAN_MOTION_DOT":0.00005018,"MEAN_MOTION_DDOT":0},{"OBJECT_NAME":"FLOCK 4G-2","OBJECT_ID":"2025-009BE","EPOCH":"2026-07-17T03:58:50.189088","CLASSIFICATION_TYPE":"U","MEAN_MOTION":15.30351615,"ECCENTRICITY":0.00039459,"INCLINATION":97.4005,"RA_OF_ASC_NODE":280.0746,"ARG_OF_PERICENTER":193.8646,"MEAN_ANOMALY":166.2487,"EPHEMERIS_TYPE":0,"NORAD_CAT_ID":62661,"ELEMENT_SET_NO":999,"REV_AT_EPOCH":14111,"BSTAR":0.00020135757,"MEAN_MOTION_DOT":0.00005835,"MEAN_MOTION_DDOT":0},{"OBJECT_NAME":"FLOCK 4G-5","OBJECT_ID":"2025-009BG","EPOCH":"2026-07-17T00:42:12.079008","CLASSIFICATION_TYPE":"U","MEAN_MOTION":15.30924924,"ECCENTRICITY":0.00036775,"INCLINATION":97.4022,"RA_OF_ASC_NODE":280.3409,"ARG_OF_PERICENTER":175.635,"MEAN_ANOMALY":184.4924,"EPHEMERIS_TYPE":0,"NORAD_CAT_ID":62663,"ELEMENT_SET_NO":999,"REV_AT_EPOCH":8350,"BSTAR":0.00017681231,"MEAN_MOTION_DOT":0.00005206,"MEAN_MOTION_DDOT":0},{"OBJECT_NAME":"FLOCK 4G-1","OBJECT_ID":"2025-009BK","EPOCH":"2026-07-17T00:29:00.419136","CLASSIFICATION_TYPE":"U","MEAN_MOTION":15.30209452,"ECCENTRICITY":0.00042058,"INCLINATION":97.4018,"RA_OF_ASC_NODE":279.9086,"ARG_OF_PERICENTER":192.2431,"MEAN_ANOMALY":167.8708,"EPHEMERIS_TYPE":0,"NORAD_CAT_ID":62666,"ELEMENT_SET_NO":999,"REV_AT_EPOCH":8347,"BSTAR":0.00020298592,"MEAN_MOTION_DOT":0.00005857,"MEAN_MOTION_DDOT":0},{"OBJECT_NAME":"FLOCK 4G-14","OBJECT_ID":"2025-009BL","EPOCH":"2026-07-17T04:22:57.767520","CLASSIFICATION_TYPE":"U","MEAN_MOTION":15.29759332,"ECCENTRICITY":0.00044245,"INCLINATION":97.4022,"RA_OF_ASC_NODE":279.8658,"ARG_OF_PERICENTER":186.5745,"MEAN_ANOMALY":173.5438,"EPHEMERIS_TYPE":0,"NORAD_CAT_ID":62667,"ELEMENT_SET_NO":999,"REV_AT_EPOCH":8348,"BSTAR":0.00020660253,"MEAN_MOTION_DOT":0.0000588,"MEAN_MOTION_DDOT":0},{"OBJECT_NAME":"FLOCK 4G-10","OBJECT_ID":"2025-009BP","EPOCH":"2026-07-16T19:13:21.868320","CLASSIFICATION_TYPE":"U","MEAN_MOTION":15.29856936,"ECCENTRICITY":0.00038355,"INCLINATION":97.3921,"RA_OF_ASC_NODE":278.7815,"ARG_OF_PERICENTER":206.77,"MEAN_ANOMALY":153.3343,"EPHEMERIS_TYPE":0,"NORAD_CAT_ID":62670,"ELEMENT_SET_NO":999,"REV_AT_EPOCH":14106,"BSTAR":0.00020325281,"MEAN_MOTION_DOT":0.00005801,"MEAN_MOTION_DDOT":0},{"OBJECT_NAME":"FLOCK 4G-36","OBJECT_ID":"2025-009BU","EPOCH":"2026-07-17T04:30:39.247200","CLASSIFICATION_TYPE":"U","MEAN_MOTION":15.29836056,"ECCENTRICITY":0.0004553,"INCLINATION":97.401,"RA_OF_ASC_NODE":279.7926,"ARG_OF_PERICENTER":192.3801,"MEAN_ANOMALY":167.7329,"EPHEMERIS_TYPE":0,"NORAD_CAT_ID":62675,"ELEMENT_SET_NO":999,"REV_AT_EPOCH":8348,"BSTAR":0.0002089956,"MEAN_MOTION_DOT":0.00005963,"MEAN_MOTION_DDOT":0},{"OBJECT_NAME":"FLOCK 4G-15","OBJECT_ID":"2025-009BX","EPOCH":"2026-07-17T04:40:28.121088","CLASSIFICATION_TYPE":"U","MEAN_MOTION":15.29926287,"ECCENTRICITY":0.00047861,"INCLINATION":97.4012,"RA_OF_ASC_NODE":279.9425,"ARG_OF_PERICENTER":189.4834,"MEAN_ANOMALY":170.6317,"EPHEMERIS_TYPE":0,"NORAD_CAT_ID":62678,"ELEMENT_SET_NO":999,"REV_AT_EPOCH":14113,"BSTAR":0.00020591556,"MEAN_MOTION_DOT":0.00005891,"MEAN_MOTION_DDOT":0},{"OBJECT_NAME":"FLOCK 4G-30","OBJECT_ID":"2025-009BY","EPOCH":"2026-07-17T04:45:11.037024","CLASSIFICATION_TYPE":"U","MEAN_MOTION":15.34045113,"ECCENTRICITY":0.00045579,"INCLINATION":97.3913,"RA_OF_ASC_NODE":279.478,"ARG_OF_PERICENTER":190.822,"MEAN_ANOMALY":169.2926,"EPHEMERIS_TYPE":0,"NORAD_CAT_ID":62679,"ELEMENT_SET_NO":999,"REV_AT_EPOCH":14114,"BSTAR":0.00067352123,"MEAN_MOTION_DOT":0.00022153,"MEAN_MOTION_DDOT":0},{"OBJECT_NAME":"FLOCK 4G-18","OBJECT_ID":"2025-009BZ","EPOCH":"2026-07-16T18:10:55.680960","CLASSIFICATION_TYPE":"U","MEAN_MOTION":15.32274299,"ECCENTRICITY":0.0006353,"INCLINATION":97.4007,"RA_OF_ASC_NODE":279.43,"ARG_OF_PERICENTER":205.0116,"MEAN_ANOMALY":155.0819,"EPHEMERIS_TYPE":0,"NORAD_CAT_ID":62680,"ELEMENT_SET_NO":999,"REV_AT_EPOCH":14106,"BSTAR":0.00070819426,"MEAN_MOTION_DOT":0.00022042,"MEAN_MOTION_DDOT":0},{"OBJECT_NAME":"FLOCK 4G-17","OBJECT_ID":"2025-009CA","EPOCH":"2026-07-17T00:35:36.538080","CLASSIFICATION_TYPE":"U","MEAN_MOTION":15.30105485,"ECCENTRICITY":0.00042863,"INCLINATION":97.3917,"RA_OF_ASC_NODE":279.2422,"ARG_OF_PERICENTER":205.9801,"MEAN_ANOMALY":154.1225,"EPHEMERIS_TYPE":0,"NORAD_CAT_ID":62681,"ELEMENT_SET_NO":999,"REV_AT_EPOCH":14111,"BSTAR":0.00020915632,"MEAN_MOTION_DOT":0.00006018,"MEAN_MOTION_DDOT":0}]}
